{
"type": "FeatureCollection",
"name": "NYS_Tax_Parcels_Public",
"crs": { "type": "name", "properties": { "name": "urn:ogc:def:crs:OGC:1.3:CRS84" } },
"features": [
{ "type": "Feature", "properties": { "COUNTY_NAME": "StLawrence", "MUNI_NAME": "Macomb", "SWIS": "405400", "PARCEL_ADDR": "360 South Woods Rd", "PRINT_KEY": "142.002-8-11", "SBL": "14200200080110000000", "CITYTOWN_NAME": "Macomb", "CITYTOWN_SWIS": "405400", "LOC_ST_NBR": "360", "LOC_STREET": "South Woods Rd", "LOC_UNIT": null, "LOC_ZIP": null, "PROP_CLASS": "113", "ROLL_SECTION": "1", "LAND_AV": 22900.0, "TOTAL_AV": 56300.0, "FULL_MARKET_VAL": 140750.0, "YR_BLT": null, "FRONT": 0, "DEPTH": 0, "SQ_FT": 0.0, "ACRES": 74.5, "SCHOOL_CODE": "404001", "SCHOOL_NAME": "Gouverneur", "SEWER_TYPE": "2", "SEWER_DESC": "Private", "WATER_SUPPLY": "2", "WATER_DESC": "Private", "UTILITIES": "3", "UTILITIES_DESC": "Electric", "BLDG_STYLE": null, "BLDG_STYLE_DESC": null, "HEAT_TYPE": null, "HEAT_TYPE_DESC": null, "FUEL_TYPE": null, "FUEL_TYPE_DESC": null, "SQFT_LIVING": null, "GFA": null, "NBR_KITCHENS": null, "NBR_FULL_BATHS": null, "NBR_BEDROOMS": null, "USED_AS_CODE": null, "USED_AS_DESC": null, "AG_DIST_CODE": "AG001", "AG_DIST_NAME": "Ag Dist #1", "MAIL_ADDR": "360 South Woods Rd", "PO_BOX": null, "MAIL_CITY": "Hammond", "MAIL_STATE": "NY", "MAIL_ZIP": "13646", "ADD_OWNER": null, "ADD_MAIL_ADDR": null, "ADD_MAIL_PO_BOX": null, "ADD_MAIL_CITY": null, "ADD_MAIL_STATE": null, "ADD_MAIL_ZIP": null, "BOOK": 2015, "PAGE": 8930, "GRID_EAST": 165411.0, "GRID_NORTH": 1611218.0, "MUNI_PARCEL_ID": "40540073345", "SWIS_SBL_ID": "40540014200200080110000000", "SWIS_PRINT_KEY_ID": "405400142.002-8-11", "ROLL_YR": 2024, "SPATIAL_YR": 2024, "OWNER_TYPE": "8", "NYS_NAME": null, "NYS_NAME_SOURCE": null, "PRIMARY_OWNER": "Sergel, Polly K", "DUP_GEO": null, "CALC_ACRES": 74.220926332778362, "Shape_Length": 2235.7924844876134, "Shape_Area": 300139.98016282648 }, "geometry": { "type": "MultiPolygon", "coordinates": [ [ [ [ -75.607903872899641, 44.414028008644138 ], [ -75.615002116251958, 44.410991685261578 ], [ -75.618144069810583, 44.414418855527693 ], [ -75.616053809581601, 44.415247229610557 ], [ -75.615883513299252, 44.41531820991321 ], [ -75.615716715603767, 44.415393337616194 ], [ -75.615553614007283, 44.415472524342611 ], [ -75.615394399698147, 44.415555677249145 ], [ -75.615212498935279, 44.41565022638796 ], [ -75.61502641514997, 44.41574049350185 ], [ -75.614836339562487, 44.415826384812007 ], [ -75.614642474720284, 44.415907808279989 ], [ -75.610980532879424, 44.41749870487785 ], [ -75.608186493235692, 44.414346846872334 ], [ -75.607903872899641, 44.414028008644138 ] ] ] ] } }
]
}
